{"spkid": "50728956", "covariance": {"elements": [{"units": null, "title": "eccentricity", "value": ".4388706819545889", "sigma": 4.75496391431467e-07, "name": "e", "label": "e"}, {"label": "q", "sigma": 6.47123899871717e-07, "name": "q", "units": "au", "value": ".7642810964476684", "title": "perihelion distance"}, {"sigma": 2.51421400483895e-05, "name": "tp", "value": "2457970.891167282203", "title": "time of perihelion passage", "units": "TDB", "label": "tp"}, {"units": "deg", "title": "longitude of the ascending node", "value": "23.88501982858015", "name": "om", "sigma": 7.74442868334487e-06, "label": "node"}, {"label": "peri", "title": "argument of perihelion", "value": "94.54450678977861", "units": "deg", "name": "w", "sigma": 6.59924159620085e-05}, {"name": "i", "sigma": 2.5551487894528e-05, "units": "deg", "title": "inclination", "value": "26.02332803746422", "label": "i"}], "data": [["2.260968182643471E-13", "-3.076993142271086E-13", "4.307021803340102E-13", "4.179032410615543E-13", "2.969664965079704E-11", "3.703188103958074E-12"], ["-3.076993142271086E-13", "4.187693417851797E-13", "-6.658118505008847E-13", "-5.615863342625541E-13", "-4.048300413271849E-11", "-5.08831179397619E-12"], ["4.307021803340102E-13", "-6.658118505008847E-13", "6.321272062128315E-10", "-4.178489999410696E-11", "5.578128788220515E-10", "3.282548183424576E-10"], ["4.179032410615543E-13", "-5.615863342625541E-13", "-4.178489999410696E-11", "5.997617563141475E-11", "-2.861897715731211E-11", "-5.067046746443468E-11"], ["2.969664965079704E-11", "-4.048300413271849E-11", "5.578128788220515E-10", "-2.861897715731211E-11", "4.354998964502751E-9", "7.780914033384625E-10"], ["3.703188103958074E-12", "-5.08831179397619E-12", "3.282548183424576E-10", "-5.067046746443468E-11", "7.780914033384625E-10", "6.528785336242109E-10"]], "labels": ["e", "q", "tp", "node", "peri", "i"], "epoch": "2458190.5"}, "elements": [{"label": "e", "name": "e", "sigma": "4.757E-7", "title": "eccentricity", "value": ".438858121828972", "units": null}, {"label": "a", "units": "au", "value": "1.36198240808203", "title": "semi-major axis", "name": "a", "sigma": "7.0187E-9"}, {"units": "au", "title": "perihelion distance", "value": ".7642653665070498", "name": "q", "sigma": "6.469E-7", "label": "q"}, {"label": "i", "title": "inclination; angle with respect to x-y ecliptic plane", "value": "26.02313811090151", "units": "deg", "name": "i", "sigma": "2.556E-5"}, {"title": "longitude of the ascending node", "value": "23.81596626206517", "units": "deg", "name": "om", "sigma": "7.7276E-6", "label": "node"}, {"units": "deg", "value": "94.62414860045884", "title": "argument of perihelion", "sigma": "6.6015E-5", "name": "w", "label": "peri"}, {"label": "M", "units": "deg", "title": "mean anomaly", "value": "202.4961796733213", "sigma": "1.0443E-5", "name": "ma"}, {"value": "2461454.506169657510", "title": "time of perihelion passage", "units": "TDB", "sigma": "1.7632E-5", "name": "tp", "label": "tp"}, {"title": "sidereal orbital period", "value": "580.5714482800693", "units": "d", "name": "per", "sigma": "4.4878E-6", "label": "period"}, {"label": "n", "title": "mean motion", "value": ".6200787191076869", "units": "deg/d", "name": "n", "sigma": "4.7932E-9"}, {"title": "aphelion distance", "value": "1.95969944965701", "units": "au", "name": "ad", "sigma": "1.0099E-8", "label": "Q"}], "epoch": "2461200.5"}